[{"OBJECT_NAME":"STARLINK-31283","OBJECT_ID":"2024-044Y","EPOCH":"2026-03-04T04:00:03.000096","MEAN_MOTION":15.27572773,"ECCENTRICITY":0.0001269,"INCLINATION":42.9998,"RA_OF_ASC_NODE":91.3027,"ARG_OF_PERICENTER":267.3913,"MEAN_ANOMALY":81.6555,"EPHEMERIS_TYPE":0,"CLASSIFICATION_TYPE":"U","NORAD_CAT_ID":59174,"ELEMENT_SET_NO":999,"REV_AT_EPOCH":578,"BSTAR":0.00026635,"MEAN_MOTION_DOT":7.073e-5,"MEAN_MOTION_DDOT":0},{"OBJECT_NAME":"STARLINK-31439","OBJECT_ID":"2024-045A","EPOCH":"2026-03-04T03:48:28.763136","MEAN_MOTION":15.27591909,"ECCENTRICITY":0.0002324,"INCLINATION":42.996,"RA_OF_ASC_NODE":120.4741,"ARG_OF_PERICENTER":151.0603,"MEAN_ANOMALY":209.0378,"EPHEMERIS_TYPE":0,"CLASSIFICATION_TYPE":"U","NORAD_CAT_ID":59178,"ELEMENT_SET_NO":999,"REV_AT_EPOCH":4868,"BSTAR":-1.1381e-5,"MEAN_MOTION_DOT":-5.76e-6,"MEAN_MOTION_DDOT":0},{"OBJECT_NAME":"STARLINK-31410","OBJECT_ID":"2024-045B","EPOCH":"2026-03-04T03:45:56.174688","MEAN_MOTION":15.27584958,"ECCENTRICITY":0.0001442,"INCLINATION":43.0014,"RA_OF_ASC_NODE":123.9235,"ARG_OF_PERICENTER":185.5716,"MEAN_ANOMALY":174.512,"EPHEMERIS_TYPE":0,"CLASSIFICATION_TYPE":"U","NORAD_CAT_ID":59179,"ELEMENT_SET_NO":999,"REV_AT_EPOCH":11231,"BSTAR":-1.1087e-6,"MEAN_MOTION_DOT":-2.93e-6,"MEAN_MOTION_DDOT":0},{"OBJECT_NAME":"STARLINK-31395","OBJECT_ID":"2024-045C","EPOCH":"2026-03-04T04:17:23.436672","MEAN_MOTION":15.27579932,"ECCENTRICITY":0.0002796,"INCLINATION":43.0003,"RA_OF_ASC_NODE":124.0861,"ARG_OF_PERICENTER":286.7679,"MEAN_ANOMALY":73.2866,"EPHEMERIS_TYPE":0,"CLASSIFICATION_TYPE":"U","NORAD_CAT_ID":59180,"ELEMENT_SET_NO":999,"REV_AT_EPOCH":11231,"BSTAR":4.8113e-5,"MEAN_MOTION_DOT":1.062e-5,"MEAN_MOTION_DDOT":0},{"OBJECT_NAME":"STARLINK-31486","OBJECT_ID":"2024-045D","EPOCH":"2026-03-04T03:54:01.880064","MEAN_MOTION":15.27588814,"ECCENTRICITY":9.87e-5,"INCLINATION":42.9994,"RA_OF_ASC_NODE":120.506,"ARG_OF_PERICENTER":199.9918,"MEAN_ANOMALY":160.0895,"EPHEMERIS_TYPE":0,"CLASSIFICATION_TYPE":"U","NORAD_CAT_ID":59181,"ELEMENT_SET_NO":999,"REV_AT_EPOCH":11235,"BSTAR":0.00011208,"MEAN_MOTION_DOT":2.824e-5,"MEAN_MOTION_DDOT":0},{"OBJECT_NAME":"STARLINK-31411","OBJECT_ID":"2024-045E","EPOCH":"2026-03-04T04:33:49.639104","MEAN_MOTION":15.27591927,"ECCENTRICITY":7.78e-5,"INCLINATION":42.9989,"RA_OF_ASC_NODE":123.3108,"ARG_OF_PERICENTER":203.2962,"MEAN_ANOMALY":156.7854,"EPHEMERIS_TYPE":0,"CLASSIFICATION_TYPE":"U","NORAD_CAT_ID":59182,"ELEMENT_SET_NO":999,"REV_AT_EPOCH":11232,"BSTAR":3.2083e-5,"MEAN_MOTION_DOT":6.21e-6,"MEAN_MOTION_DDOT":0},{"OBJECT_NAME":"STARLINK-31382","OBJECT_ID":"2024-045G","EPOCH":"2026-03-04T04:26:25.620864","MEAN_MOTION":15.27590763,"ECCENTRICITY":4.6e-5,"INCLINATION":42.9969,"RA_OF_ASC_NODE":123.2737,"ARG_OF_PERICENTER":313.6477,"MEAN_ANOMALY":46.4336,"EPHEMERIS_TYPE":0,"CLASSIFICATION_TYPE":"U","NORAD_CAT_ID":59184,"ELEMENT_SET_NO":999,"REV_AT_EPOCH":11232,"BSTAR":6.2641e-6,"MEAN_MOTION_DOT":-8.9e-7,"MEAN_MOTION_DDOT":0},{"OBJECT_NAME":"STARLINK-31394","OBJECT_ID":"2024-045H","EPOCH":"2026-03-04T03:16:32.119968","MEAN_MOTION":15.27593701,"ECCENTRICITY":0.0003689,"INCLINATION":43.0066,"RA_OF_ASC_NODE":113.4048,"ARG_OF_PERICENTER":291.5865,"MEAN_ANOMALY":68.4593,"EPHEMERIS_TYPE":0,"CLASSIFICATION_TYPE":"U","NORAD_CAT_ID":59185,"ELEMENT_SET_NO":999,"REV_AT_EPOCH":11243,"BSTAR":0.00027061,"MEAN_MOTION_DOT":7.195e-5,"MEAN_MOTION_DDOT":0},{"OBJECT_NAME":"STARLINK-31403","OBJECT_ID":"2024-045J","EPOCH":"2026-03-04T02:41:36.627072","MEAN_MOTION":15.27563853,"ECCENTRICITY":0.000155,"INCLINATION":42.9996,"RA_OF_ASC_NODE":102.6083,"ARG_OF_PERICENTER":273.6591,"MEAN_ANOMALY":86.4084,"EPHEMERIS_TYPE":0,"CLASSIFICATION_TYPE":"U","NORAD_CAT_ID":59186,"ELEMENT_SET_NO":999,"REV_AT_EPOCH":11249,"BSTAR":9.3956e-5,"MEAN_MOTION_DOT":2.323e-5,"MEAN_MOTION_DDOT":0},{"OBJECT_NAME":"STARLINK-31514","OBJECT_ID":"2024-045K","EPOCH":"2026-03-04T03:40:23.335104","MEAN_MOTION":15.27579735,"ECCENTRICITY":0.0001234,"INCLINATION":43.0043,"RA_OF_ASC_NODE":123.8978,"ARG_OF_PERICENTER":265.7743,"MEAN_ANOMALY":94.2968,"EPHEMERIS_TYPE":0,"CLASSIFICATION_TYPE":"U","NORAD_CAT_ID":59187,"ELEMENT_SET_NO":999,"REV_AT_EPOCH":11231,"BSTAR":6.0331e-6,"MEAN_MOTION_DOT":-9.6e-7,"MEAN_MOTION_DDOT":0},{"OBJECT_NAME":"STARLINK-31478","OBJECT_ID":"2024-045L","EPOCH":"2026-03-04T03:25:35.393664","MEAN_MOTION":15.27575176,"ECCENTRICITY":0.0001465,"INCLINATION":43.0023,"RA_OF_ASC_NODE":123.8124,"ARG_OF_PERICENTER":276.927,"MEAN_ANOMALY":83.1415,"EPHEMERIS_TYPE":0,"CLASSIFICATION_TYPE":"U","NORAD_CAT_ID":59188,"ELEMENT_SET_NO":999,"REV_AT_EPOCH":11231,"BSTAR":0.0001941,"MEAN_MOTION_DOT":5.082e-5,"MEAN_MOTION_DDOT":0},{"OBJECT_NAME":"STARLINK-31498","OBJECT_ID":"2024-045M","EPOCH":"2026-03-04T04:02:35.153952","MEAN_MOTION":15.27580039,"ECCENTRICITY":0.0001188,"INCLINATION":43.0019,"RA_OF_ASC_NODE":124.0071,"ARG_OF_PERICENTER":241.8947,"MEAN_ANOMALY":118.1785,"EPHEMERIS_TYPE":0,"CLASSIFICATION_TYPE":"U","NORAD_CAT_ID":59189,"ELEMENT_SET_NO":999,"REV_AT_EPOCH":11231,"BSTAR":8.1473e-5,"MEAN_MOTION_DOT":1.981e-5,"MEAN_MOTION_DDOT":0},{"OBJECT_NAME":"STARLINK-31563","OBJECT_ID":"2024-045N","EPOCH":"2026-03-04T04:43:05.111616","MEAN_MOTION":15.27588407,"ECCENTRICITY":3.87e-5,"INCLINATION":42.998,"RA_OF_ASC_NODE":123.3637,"ARG_OF_PERICENTER":303.9098,"MEAN_ANOMALY":56.1716,"EPHEMERIS_TYPE":0,"CLASSIFICATION_TYPE":"U","NORAD_CAT_ID":59190,"ELEMENT_SET_NO":999,"REV_AT_EPOCH":11232,"BSTAR":-2.0245e-5,"MEAN_MOTION_DOT":-8.19e-6,"MEAN_MOTION_DDOT":0},{"OBJECT_NAME":"STARLINK-31551","OBJECT_ID":"2024-045P","EPOCH":"2026-03-04T04:27:08.170272","MEAN_MOTION":15.27576412,"ECCENTRICITY":0.0002379,"INCLINATION":43.0024,"RA_OF_ASC_NODE":119.8473,"ARG_OF_PERICENTER":285.5005,"MEAN_ANOMALY":74.5584,"EPHEMERIS_TYPE":0,"CLASSIFICATION_TYPE":"U","NORAD_CAT_ID":59191,"ELEMENT_SET_NO":999,"REV_AT_EPOCH":11236,"BSTAR":0.00010697,"MEAN_MOTION_DOT":2.682e-5,"MEAN_MOTION_DDOT":0},{"OBJECT_NAME":"STARLINK-31536","OBJECT_ID":"2024-045Q","EPOCH":"2026-03-04T04:00:03.000096","MEAN_MOTION":15.27568216,"ECCENTRICITY":0.0001338,"INCLINATION":43.0026,"RA_OF_ASC_NODE":123.7258,"ARG_OF_PERICENTER":253.7295,"MEAN_ANOMALY":216.909,"EPHEMERIS_TYPE":0,"CLASSIFICATION_TYPE":"U","NORAD_CAT_ID":59192,"ELEMENT_SET_NO":999,"REV_AT_EPOCH":563,"BSTAR":0.0015438,"MEAN_MOTION_DOT":0.0004245,"MEAN_MOTION_DDOT":0},{"OBJECT_NAME":"STARLINK-31548","OBJECT_ID":"2024-045R","EPOCH":"2026-03-04T04:11:50.110656","MEAN_MOTION":15.27587266,"ECCENTRICITY":0.0001094,"INCLINATION":42.9961,"RA_OF_ASC_NODE":124.0509,"ARG_OF_PERICENTER":204.7016,"MEAN_ANOMALY":155.3784,"EPHEMERIS_TYPE":0,"CLASSIFICATION_TYPE":"U","NORAD_CAT_ID":59193,"ELEMENT_SET_NO":999,"REV_AT_EPOCH":11231,"BSTAR":4.052e-5,"MEAN_MOTION_DOT":8.53e-6,"MEAN_MOTION_DDOT":0},{"OBJECT_NAME":"STARLINK-31542","OBJECT_ID":"2024-045S","EPOCH":"2026-03-04T04:22:43.426848","MEAN_MOTION":15.27598117,"ECCENTRICITY":6.89e-5,"INCLINATION":42.9934,"RA_OF_ASC_NODE":123.2486,"ARG_OF_PERICENTER":357.0853,"MEAN_ANOMALY":2.9994,"EPHEMERIS_TYPE":0,"CLASSIFICATION_TYPE":"U","NORAD_CAT_ID":59194,"ELEMENT_SET_NO":999,"REV_AT_EPOCH":11232,"BSTAR":-4.1112e-5,"MEAN_MOTION_DOT":-1.393e-5,"MEAN_MOTION_DDOT":0}]
