STARLINK-31283          
1 59174U 24044Y   26063.16670139  .00007073  00000+0  26635-3 0  9991
2 59174  42.9998  91.3027 0001269 267.3913  81.6555 15.27572773  5786
STARLINK-31439          
1 59178U 24045A   26063.15866624 -.00000576  00000+0 -11381-4 0  9997
2 59178  42.9960 120.4741 0002324 151.0603 209.0378 15.27591909 48681
STARLINK-31410          
1 59179U 24045B   26063.15690017 -.00000293  00000+0 -11087-5 0  9999
2 59179  43.0014 123.9235 0001442 185.5716 174.5120 15.27584958112316
STARLINK-31395          
1 59180U 24045C   26063.17874348  .00001062  00000+0  48113-4 0  9996
2 59180  43.0003 124.0861 0002796 286.7679  73.2866 15.27579932112316
STARLINK-31486          
1 59181U 24045D   26063.16252176  .00002824  00000+0  11208-3 0  9996
2 59181  42.9994 120.5060 0000987 199.9918 160.0895 15.27588814112357
STARLINK-31411          
1 59182U 24045E   26063.19015786  .00000621  00000+0  32083-4 0  9992
2 59182  42.9989 123.3108 0000778 203.2962 156.7854 15.27591927112325
STARLINK-31382          
1 59184U 24045G   26063.18501876 -.00000089  00000+0  62641-5 0  9996
2 59184  42.9969 123.2737 0000460 313.6477  46.4336 15.27590763112324
STARLINK-31394          
1 59185U 24045H   26063.13648287  .00007195  00000+0  27061-3 0  9999
2 59185  43.0066 113.4048 0003689 291.5865  68.4593 15.27593701112438
STARLINK-31403          
1 59186U 24045J   26063.11222948  .00002323  00000+0  93956-4 0  9995
2 59186  42.9996 102.6083 0001550 273.6591  86.4084 15.27563853112496
STARLINK-31514          
1 59187U 24045K   26063.15304786 -.00000096  00000+0  60331-5 0  9999
2 59187  43.0043 123.8978 0001234 265.7743  94.2968 15.27579735112315
STARLINK-31478          
1 59188U 24045L   26063.14277076  .00005082  00000+0  19410-3 0  9999
2 59188  43.0023 123.8124 0001465 276.9270  83.1415 15.27575176112311
STARLINK-31498          
1 59189U 24045M   26063.16846243  .00001981  00000+0  81473-4 0  9993
2 59189  43.0019 124.0071 0001188 241.8947 118.1785 15.27580039112318
STARLINK-31563          
1 59190U 24045N   26063.19658694 -.00000819  00000+0 -20245-4 0  9990
2 59190  42.9980 123.3637 0000387 303.9098  56.1716 15.27588407112325
STARLINK-31551          
1 59191U 24045P   26063.18551123  .00002682  00000+0  10697-3 0  9996
2 59191  43.0024 119.8473 0002379 285.5005  74.5584 15.27576412112365
STARLINK-31536          
1 59192U 24045Q   26063.16670139  .00042450  00000+0  15438-2 0  9998
2 59192  43.0026 123.7258 0001338 253.7295 216.9090 15.27568216  5633
STARLINK-31548          
1 59193U 24045R   26063.17488554  .00000853  00000+0  40520-4 0  9991
2 59193  42.9961 124.0509 0001094 204.7016 155.3784 15.27587266112315
STARLINK-31542          
1 59194U 24045S   26063.18244707 -.00001393  00000+0 -41112-4 0  9993
2 59194  42.9934 123.2486 0000689 357.0853   2.9994 15.27598117112329
